H1 CPF  1  HTS 2022 12 22 12  8561 larets           NONE
H2  0304206 5557    27944 2022 12 22  0  0  0 2022 12 27  0  0  0   180 1 1  0 0 0
H5  0.0560 
H9 
10 0 59935  23400.00000  0    2123947.592   -2202433.025   -6377208.126
10 0 59935  23580.00000  0    2513638.150   -3324826.685   -5712494.391
10 0 59935  23760.00000  0    2784491.560   -4335736.840   -4839858.181
10 0 59935  23940.00000  0    2929964.672   -5195105.363   -3790701.551
10 0 59935  24120.00000  0    2948994.999   -5868100.753   -2602992.954
10 0 59935  24300.00000  0    2845929.897   -6326593.722   -1319950.067
10 0 59935  24480.00000  0    2630223.411   -6550408.209      11517.075
10 0 59935  24660.00000  0    2315903.189   -6528270.264    1342547.700
10 0 59935  24840.00000  0    1920832.501   -6258394.627    2624177.491
10 0 59935  25020.00000  0    1465802.593   -5748667.361    3809210.219
10 0 59935  25200.00000  0     973504.549   -5016411.677    4854014.941
10 0 59935  25380.00000  0     467438.027   -4087758.480    5720171.667
10 0 59935  25560.00000  0     -29187.516   -2996650.573    6375900.992
10 0 59935  25740.00000  0    -494501.280   -1783531.369    6797214.957
10 0 59935  25920.00000  0    -908921.929    -493795.109    6968762.358
10 0 59935  26100.00000  0   -1255974.146     823945.680    6884361.107
10 0 59935  26280.00000  0   -1522941.865    2119716.181    6547201.160
10 0 59935  26460.00000  0   -1701334.555    3344089.663    5969717.363
10 0 59935  26640.00000  0   -1787153.567    4450089.317    5173138.907
10 0 59935  26820.00000  0   -1780950.414    5395017.751    4186726.683
10 0 59935  27000.00000  0   -1687676.286    6142146.484    3046711.256
10 0 59935  27180.00000  0   -1516330.441    6662188.802    1794960.183
10 0 59935  27360.00000  0   -1279421.986    6934489.195     477419.066
10 0 59935  27540.00000  0    -992267.154    6947866.521    -857611.800
10 0 59935  27720.00000  0    -672162.388    6701069.863   -2161295.206
10 0 59935  27900.00000  0    -337476.857    6202810.212   -3386087.854
10 0 59935  28080.00000  0      -6718.668    5471382.568   -4487485.008
10 0 59935  28260.00000  0     302380.936    4533919.488   -5425618.813
10 0 59935  28440.00000  0     573723.041    3425315.874   -6166655.401
10 0 59935  28620.00000  0     793596.307    2186880.470   -6683947.766
10 0 59935  28800.00000  0     951300.625     864779.524   -6958917.050
10 0 59935  28980.00000  0    1039619.351    -491664.051   -6981657.036
10 0 59935  29160.00000  0    1055125.369   -1831767.606   -6751257.423
10 0 59935  29340.00000  0     998312.396   -3105325.954   -6275842.317
10 0 59935  29520.00000  0     873550.328   -4264446.248   -5572334.405
10 0 59935  29700.00000  0     688860.742   -5265338.568   -4665928.473
10 0 59935  29880.00000  0     455520.311   -6069994.374   -3589274.198
10 0 59935  30060.00000  0     187500.948   -6647693.404   -2381375.810
10 0 59935  30240.00000  0     -99232.045   -6976266.169   -1086226.925
10 0 59935  30420.00000  0    -387534.681   -7043042.409     248784.605
10 0 59935  30600.00000  0    -659973.392   -6845419.308    1574640.735
10 0 59935  30780.00000  0    -899742.475   -6391013.380    2842549.521
10 0 59935  30960.00000  0   -1091558.899   -5697374.679    4005812.225
10 0 59935  31140.00000  0   -1222482.663   -4791271.481    5021603.603
10 0 59935  31320.00000  0   -1282622.472   -3707596.513    5852581.848
10 0 59935  31500.00000  0   -1265689.647   -2487952.302    6468272.731
10 0 59935  31680.00000  0   -1169372.187   -1178984.428    6846168.010
10 0 59935  31860.00000  0    -995516.943     169448.180    6972516.492
10 0 59935  32040.00000  0    -750117.253    1506202.667    6842796.098
10 0 59935  32220.00000  0    -443099.626    2780810.342    6461858.153
10 0 59935  32400.00000  0     -87917.891    3945396.837    5843742.421
10 0 59935  32580.00000  0     299026.392    4956499.657    5011169.391
10 0 59935  32760.00000  0     699117.887    5776722.114    3994721.607
10 0 59935  32940.00000  0    1092385.265    6376156.941    2831730.880
10 0 59935  33120.00000  0    1458449.347    6733529.198    1564909.071
10 0 59935  33300.00000  0    1777515.373    6836989.398     240745.958
10 0 59935  33480.00000  0    2031354.759    6684508.947   -1092239.491
10 0 59935  33660.00000  0    2204226.562    6283868.401   -2385318.301
10 0 59935  33840.00000  0    2283692.739    5652247.008   -3591363.451
10 0 59935  34020.00000  0    2261287.642    4815436.079   -4666579.881
10 0 59935  34200.00000  0    2133008.160    3806720.433   -5572075.424
10 0 59935  34380.00000  0    1899605.850    2665499.968   -6275214.508
10 0 59935  34560.00000  0    1566674.188    1435721.206   -6750722.843
10 0 59935  34740.00000  0    1144532.555     164187.500   -6981519.587
10 0 59935  34920.00000  0     647913.046   -1101190.504   -6959273.247
10 0 59935  35100.00000  0      95457.367   -2313152.559   -6684673.518
10 0 59935  35280.00000  0    -490957.830   -3426801.725   -6167424.013
10 0 59935  35460.00000  0   -1087054.945   -4401239.049   -5425954.571
10 0 59935  35640.00000  0   -1667124.109   -5201068.492   -4486843.228
10 0 59935  35820.00000  0   -2205099.981   -5797724.498   -3383950.565
10 0 59935  36000.00000  0   -2675707.284   -6170563.249   -2157269.856
10 0 59935  36180.00000  0   -3055624.347   -6307663.071    -851519.190
10 0 59935  36360.00000  0   -3324608.763   -6206285.731     485487.880
10 0 59935  36540.00000  0   -3466521.374   -5872955.603    1804632.013
10 0 59935  36720.00000  0   -3470189.346   -5323142.841    3057355.383
10 0 59935  36900.00000  0   -3330058.100   -4580561.878    4197516.930
10 0 59935  37080.00000  0   -3046596.236   -3676125.074    5183147.297
10 0 59935  37260.00000  0   -2626434.179   -2646606.929    5978025.256
10 0 59935  37440.00000  0   -2082229.902   -1533094.440    6553011.418
10 0 59935  37620.00000  0   -1432271.585    -379301.542    6887100.450
10 0 59935  37800.00000  0    -699836.040     770184.114    6968155.952
10 0 59935  37980.00000  0      87663.226    1871641.212    6793319.034
10 0 59935  38160.00000  0     899715.611    2883889.831    6369094.640
10 0 59935  38340.00000  0    1703904.953    3769841.855    5711107.539
10 0 59935  38520.00000  0    2467208.633    4497876.991    4843540.020
10 0 59935  38700.00000  0    3157361.378    5042998.781    3798259.274
10 0 59935  38880.00000  0    3744226.465    5387720.673    2613656.764
10 0 59935  39060.00000  0    4201120.003    5522652.779    1333231.914
10 0 59935  39240.00000  0    4506014.630    5446745.389       3962.383
10 0 59935  39420.00000  0    4642561.704    5167183.031   -1325462.949
10 0 59935  39600.00000  0    4600881.779    4698928.835   -2606469.897
10 0 59935  39780.00000  0    4378085.293    4063955.857   -3792402.018
10 0 59935  39960.00000  0    3978497.894    3290207.642   -4840225.533
10 0 59935  40140.00000  0    3413588.815    2410347.390   -5712063.305
10 0 59935  40320.00000  0    2701615.196    1460363.543   -6376509.373
10 0 59935  40500.00000  0    1867003.191     478097.554   -6809686.263
10 0 59935  40680.00000  0     939500.515    -498241.636   -6996026.927
10 0 59935  40860.00000  0     -46869.676   -1431527.787   -6928782.684
10 0 59935  41040.00000  0   -1055025.272   -2287088.584   -6610245.674
10 0 59935  41220.00000  0   -2046175.996   -3033960.819   -6051693.458
10 0 59935  41400.00000  0   -2981276.214   -3646000.134   -5273047.652
10 0 59935  41580.00000  0   -3822540.379   -4102811.709   -4302248.363
10 0 59935  41760.00000  0   -4534975.254   -4390469.109   -3174336.393
10 0 59935  41940.00000  0   -5087862.475   -4501983.637   -1930255.044
10 0 59935  42120.00000  0   -5456123.889   -4437496.229    -615397.410
10 0 59935  42300.00000  0   -5621495.969   -4204172.311     722054.980
10 0 59935  42480.00000  0   -5573444.972   -3815796.463    2032940.197
10 0 59935  42660.00000  0   -5309760.523   -3292076.190    3268990.759
10 0 59935  42840.00000  0   -4836791.055   -2657690.501    4384678.294
10 0 59935  43020.00000  0   -4169309.020   -1941136.619    5338944.076
10 0 59935  43200.00000  0   -3330016.018   -1173438.503    6096733.222
10 0 59935  43380.00000  0   -2348723.225    -386787.975    6630282.308
10 0 59935  43560.00000  0   -1261237.659     386824.113    6920117.234
10 0 59935  43740.00000  0    -108011.308    1116917.478    6955727.658
10 0 59935  43920.00000  0    1067388.026    1775726.953    6735920.409
10 0 59935  44100.00000  0    2219937.840    2339264.217    6268845.038
10 0 59935  44280.00000  0    3304896.892    2788196.343    5571693.018
10 0 59935  44460.00000  0    4279559.863    3108516.346    4670081.105
10 0 59935  44640.00000  0    5104963.450    3291983.250    3597125.742
10 0 59935  44820.00000  0    5747481.538    3336314.770    2392236.086
10 0 59935  45000.00000  0    6180231.278    3245118.697    1099651.141
10 0 59935  45180.00000  0    6384218.118    3027570.247    -233215.582
10 0 59935  45360.00000  0    6349161.811    2697846.712   -1557561.431
10 0 59935  45540.00000  0    6073958.046    2274350.501   -2825021.785
10 0 59935  45720.00000  0    5566763.825    1778771.043   -3989460.950
10 0 59935  45900.00000  0    4844705.649    1235028.217   -5008653.447
10 0 59935  46080.00000  0    3933230.865     668156.143   -5845782.810
10 0 59935  46260.00000  0    2865151.470     103187.961   -6470708.444
10 0 59935  46440.00000  0    1679428.389    -435911.502   -6860976.020
10 0 59935  46620.00000  0     419750.109    -927225.507   -7002552.931
10 0 59935  46800.00000  0    -867048.618   -1351745.158   -6890285.628
10 0 59935  46980.00000  0   -2132680.240   -1694082.001   -6528073.717
10 0 59935  47160.00000  0   -3329166.210   -1943017.260   -5928762.334
10 0 59935  47340.00000  0   -4410618.209   -2091871.208   -5113750.256
10 0 59935  47520.00000  0   -5334996.524   -2138683.632   -4112313.450
10 0 59935  47700.00000  0   -6065780.532   -2086192.965   -2960636.831
99
